{
  "type": "FeatureCollection",
  "features": [
    {
      "type": "Feature",
      "properties": {
        "norad_id": 31248,
        "name": "FENGYUN 1C DEB",
        "group": "fengyun-1c-debris",
        "lat": -53.370665907649524,
        "lon": 57.08708643991882,
        "alt_km": 846.0792783222141,
        "timestamp": "2025-12-12T22:42:12.827095+00:00",
        "meta_object_name": "FENGYUN 1C DEB",
        "meta_object_id": "1999-025BME",
        "meta_epoch": "2025-12-12T02:24:32.324832",
        "meta_mean_motion": 13.92781644,
        "meta_eccentricity": 0.01096929,
        "meta_inclination": 99.2646,
        "meta_ra_of_asc_node": 43.5589,
        "meta_arg_of_pericenter": 313.1279,
        "meta_mean_anomaly": 75.0528,
        "meta_ephemeris_type": 0,
        "meta_classification_type": "U",
        "meta_norad_cat_id": 31248,
        "meta_element_set_no": 999,
        "meta_rev_at_epoch": 94815,
        "meta_bstar": 0.0008514449,
        "meta_mean_motion_dot": 1.112e-05,
        "meta_mean_motion_ddot": 0,
        "tle_line1": "1 31248U 99025BME 25346.10037413  .00001112  00000+0  85144-3 0  9991",
        "tle_line2": "2 31248  99.2646  43.5589 0109692 313.1279  75.0528 13.92781644948152"
      },
      "geometry": {
        "type": "Point",
        "coordinates": [
          57.08708643991882,
          -53.370665907649524
        ]
      }
    },
    {
      "type": "Feature",
      "properties": {
        "norad_id": 31250,
        "name": "FENGYUN 1C DEB",
        "group": "fengyun-1c-debris",
        "lat": 36.30112569394297,
        "lon": 23.182642215151297,
        "alt_km": 967.6471711143058,
        "timestamp": "2025-12-12T22:42:12.827105+00:00",
        "meta_object_name": "FENGYUN 1C DEB",
        "meta_object_id": "1999-025BMG",
        "meta_epoch": "2025-12-12T01:28:34.912416",
        "meta_mean_motion": 14.03080505,
        "meta_eccentricity": 0.0133497,
        "meta_inclination": 98.3876,
        "meta_ra_of_asc_node": 196.145,
        "meta_arg_of_pericenter": 299.9462,
        "meta_mean_anomaly": 58.8506,
        "meta_ephemeris_type": 0,
        "meta_classification_type": "U",
        "meta_norad_cat_id": 31250,
        "meta_element_set_no": 999,
        "meta_rev_at_epoch": 95508,
        "meta_bstar": 0.0017866273,
        "meta_mean_motion_dot": 2.966e-05,
        "meta_mean_motion_ddot": 0,
        "tle_line1": "1 31250U 99025BMG 25346.06151519  .00002966  00000+0  17866-2 0  9996",
        "tle_line2": "2 31250  98.3876 196.1450 0133497 299.9462  58.8506 14.03080505955083"
      },
      "geometry": {
        "type": "Point",
        "coordinates": [
          23.182642215151297,
          36.30112569394297
        ]
      }
    },
    {
      "type": "Feature",
      "properties": {
        "norad_id": 31252,
        "name": "FENGYUN 1C DEB",
        "group": "fengyun-1c-debris",
        "lat": -50.00078748630354,
        "lon": 175.74483504256213,
        "alt_km": 683.981679103058,
        "timestamp": "2025-12-12T22:42:12.827115+00:00",
        "meta_object_name": "FENGYUN 1C DEB",
        "meta_object_id": "1999-025BMJ",
        "meta_epoch": "2025-12-12T06:38:23.411904",
        "meta_mean_motion": 14.40172,
        "meta_eccentricity": 0.02138263,
        "meta_inclination": 98.3173,
        "meta_ra_of_asc_node": 5.1345,
        "meta_arg_of_pericenter": 173.5973,
        "meta_mean_anomaly": 186.8029,
        "meta_ephemeris_type": 0,
        "meta_classification_type": "U",
        "meta_norad_cat_id": 31252,
        "meta_element_set_no": 999,
        "meta_rev_at_epoch": 97200,
        "meta_bstar": 0.0006037339,
        "meta_mean_motion_dot": 2.45e-05,
        "meta_mean_motion_ddot": 0,
        "tle_line1": "1 31252U 99025BMJ 25346.27665986  .00002450  00000+0  60373-3 0  9999",
        "tle_line2": "2 31252  98.3173   5.1345 0213826 173.5973 186.8029 14.40172000972002"
      },
      "geometry": {
        "type": "Point",
        "coordinates": [
          175.74483504256213,
          -50.00078748630354
        ]
      }
    },
    {
      "type": "Feature",
      "properties": {
        "norad_id": 31253,
        "name": "FENGYUN 1C DEB",
        "group": "fengyun-1c-debris",
        "lat": -46.460684097335744,
        "lon": 61.6532115783345,
        "alt_km": 1040.5608125881317,
        "timestamp": "2025-12-12T22:42:12.827125+00:00",
        "meta_object_name": "FENGYUN 1C DEB",
        "meta_object_id": "1999-025BMK",
        "meta_epoch": "2025-12-10T11:03:14.516352",
        "meta_mean_motion": 14.03597801,
        "meta_eccentricity": 0.02905912,
        "meta_inclination": 99.0776,
        "meta_ra_of_asc_node": 49.4834,
        "meta_arg_of_pericenter": 97.1731,
        "meta_mean_anomaly": 266.2566,
        "meta_ephemeris_type": 0,
        "meta_classification_type": "U",
        "meta_norad_cat_id": 31253,
        "meta_element_set_no": 999,
        "meta_rev_at_epoch": 68966,
        "meta_bstar": 0.00043343724,
        "meta_mean_motion_dot": 9.45e-06,
        "meta_mean_motion_ddot": 0,
        "tle_line1": "1 31253U 99025BMK 25344.46058468  .00000945  00000+0  43344-3 0  9996",
        "tle_line2": "2 31253  99.0776  49.4834 0290591  97.1731 266.2566 14.03597801689666"
      },
      "geometry": {
        "type": "Point",
        "coordinates": [
          61.6532115783345,
          -46.460684097335744
        ]
      }
    },
    {
      "type": "Feature",
      "properties": {
        "norad_id": 31254,
        "name": "FENGYUN 1C DEB",
        "group": "fengyun-1c-debris",
        "lat": 33.59223897158646,
        "lon": 30.958151863862657,
        "alt_km": 873.8446748108126,
        "timestamp": "2025-12-12T22:42:12.827135+00:00",
        "meta_object_name": "FENGYUN 1C DEB",
        "meta_object_id": "1999-025BML",
        "meta_epoch": "2025-12-10T08:57:59.154048",
        "meta_mean_motion": 14.3634275,
        "meta_eccentricity": 0.01512321,
        "meta_inclination": 98.4618,
        "meta_ra_of_asc_node": 34.1052,
        "meta_arg_of_pericenter": 209.1278,
        "meta_mean_anomaly": 211.611,
        "meta_ephemeris_type": 0,
        "meta_classification_type": "U",
        "meta_norad_cat_id": 31254,
        "meta_element_set_no": 999,
        "meta_rev_at_epoch": 97482,
        "meta_bstar": 0.00082167547,
        "meta_mean_motion_dot": 2.692e-05,
        "meta_mean_motion_ddot": 0,
        "tle_line1": "1 31254U 99025BML 25344.37360132  .00002692  00000+0  82168-3 0  9999",
        "tle_line2": "2 31254  98.4618  34.1052 0151232 209.1278 211.6110 14.36342750974828"
      },
      "geometry": {
        "type": "Point",
        "coordinates": [
          30.958151863862657,
          33.59223897158646
        ]
      }
    },
    {
      "type": "Feature",
      "properties": {
        "norad_id": 31255,
        "name": "FENGYUN 1C DEB",
        "group": "fengyun-1c-debris",
        "lat": -66.43720018475543,
        "lon": -173.8727602654761,
        "alt_km": 741.3851583918085,
        "timestamp": "2025-12-12T22:42:12.827145+00:00",
        "meta_object_name": "FENGYUN 1C DEB",
        "meta_object_id": "1999-025BMM",
        "meta_epoch": "2025-12-12T05:58:40.440288",
        "meta_mean_motion": 14.09727333,
        "meta_eccentricity": 0.02706634,
        "meta_inclination": 99.3082,
        "meta_ra_of_asc_node": 163.316,
        "meta_arg_of_pericenter": 344.8688,
        "meta_mean_anomaly": 14.4499,
        "meta_ephemeris_type": 0,
        "meta_classification_type": "U",
        "meta_norad_cat_id": 31255,
        "meta_element_set_no": 999,
        "meta_rev_at_epoch": 96794,
        "meta_bstar": 0.00040372755,
        "meta_mean_motion_dot": 9.43e-06,
        "meta_mean_motion_ddot": 0,
        "tle_line1": "1 31255U 99025BMM 25346.24907917  .00000943  00000+0  40373-3 0  9995",
        "tle_line2": "2 31255  99.3082 163.3160 0270663 344.8688  14.4499 14.09727333967949"
      },
      "geometry": {
        "type": "Point",
        "coordinates": [
          -173.8727602654761,
          -66.43720018475543
        ]
      }
    },
    {
      "type": "Feature",
      "properties": {
        "norad_id": 31256,
        "name": "FENGYUN 1C DEB",
        "group": "fengyun-1c-debris",
        "lat": 18.80094405774163,
        "lon": 17.57946835799105,
        "alt_km": 727.4482211020741,
        "timestamp": "2025-12-12T22:42:12.827155+00:00",
        "meta_object_name": "FENGYUN 1C DEB",
        "meta_object_id": "1999-025BMN",
        "meta_epoch": "2025-12-10T10:04:20.682048",
        "meta_mean_motion": 14.03237685,
        "meta_eccentricity": 0.03084006,
        "meta_inclination": 98.6795,
        "meta_ra_of_asc_node": 192.1841,
        "meta_arg_of_pericenter": 120.5435,
        "meta_mean_anomaly": 242.6554,
        "meta_ephemeris_type": 0,
        "meta_classification_type": "U",
        "meta_norad_cat_id": 31256,
        "meta_element_set_no": 999,
        "meta_rev_at_epoch": 64949,
        "meta_bstar": 0.0039409044,
        "meta_mean_motion_dot": 9.337e-05,
        "meta_mean_motion_ddot": 0,
        "tle_line1": "1 31256U 99025BMN 25344.41968382  .00009337  00000+0  39409-2 0  9999",
        "tle_line2": "2 31256  98.6795 192.1841 0308400 120.5435 242.6554 14.03237685649493"
      },
      "geometry": {
        "type": "Point",
        "coordinates": [
          17.57946835799105,
          18.80094405774163
        ]
      }
    }
  ]
}